NORAD_CAT_ID,OBJECT_NAME,OBJECT_TYPE,EPOCH,MEAN_MOTION,ECCENTRICITY,INCLINATION,RA_OF_ASC_NODE,ARG_OF_PERICENTER,MEAN_ANOMALY,BSTAR,MEAN_MOTION_DOT,MEAN_MOTION_DDOT,TLE_LINE0,TLE_LINE1,TLE_LINE2,SEMIMAJOR_AXIS,PERIOD,APOGEE,PERIGEE,DECAYED
52364.0,STARLINK-3820,PAYLOAD,2022-12-06 10:31:36,15.08844645,0.0003351,53.2184,127.865,53.5183,306.6117,5.1062e-05,5.24e-06,0.0,0 STARLINK-3820,1 52364U 22045AK  22340.43861664  .00000524  00000-0  51062-4 0  9991,2 52364  53.2184 127.8650 0003351  53.5183 306.6117 15.08844645 36380,6917.866,95.437,542.049,537.413,0.0
52364.0,STARLINK-3820,PAYLOAD,2022-12-06 16:53:09,15.08843341,0.0003347,53.2186,126.6756,53.356,306.774,-5.2242e-06,-3.72e-06,0.0,0 STARLINK-3820,1 52364U 22045AK  22340.70357928 -.00000372  00000-0 -52242-5 0  9999,2 52364  53.2186 126.6756 0003347  53.3560 306.7740 15.08843341 36428,6917.87,95.437,542.0509999999998,537.42,0.0
52364.0,STARLINK-3820,PAYLOAD,2022-12-07 10:22:24,15.08834362,0.0003368,53.2182,123.405,53.9992,306.1312,1.1915e-05,-9.9e-07,0.0,0 STARLINK-3820,1 52364U 22045AK  22341.43222566 -.00000099  00000-0  11915-4 0  9995,2 52364  53.2182 123.4050 0003368  53.9992 306.1312 15.08834362 36538,6917.898,95.438,542.0930000000002,537.433,0.0
52364.0,STARLINK-3820,PAYLOAD,2022-12-07 19:54:42,15.08851241,0.0003283,53.218,121.6209,50.2638,309.8643,-0.00023077,-3.961e-05,0.0,0 STARLINK-3820,1 52364U 22045AK  22341.82966394 -.00003961  00000-0 -23077-3 0  9995,2 52364  53.2180 121.6209 0003283  50.2638 309.8643 15.08851241 36593,6917.846,95.437,541.982,537.44,0.0
52364.0,STARLINK-3820,PAYLOAD,2022-12-08 08:37:47,15.08844729,0.0003143,53.2179,119.2421,53.4646,306.6635,8.1523e-05,1.009e-05,0.0,0 STARLINK-3820,1 52364U 22045AK  22342.35957854  .00001009  00000-0  81523-4 0  9995,2 52364  53.2179 119.2421 0003143  53.4646 306.6635 15.08844729 36677,6917.866,95.437,541.905,537.557,0.0
52364.0,STARLINK-3820,PAYLOAD,2022-12-09 08:28:34,15.08848667,0.0003227,53.2186,114.7833,58.173,301.9576,5.584800000000001e-05,6e-06,0.0,0 STARLINK-3820,1 52364U 22045AK  22343.35317633  .00000600  00000-0  55848-4 0  9998,2 52364  53.2186 114.7833 0003227  58.1730 301.9576 15.08848667 36825,6917.854,95.437,541.951,537.487,0.0
52364.0,STARLINK-3820,PAYLOAD,2022-12-09 21:11:41,15.08821718,0.0003064,53.2175,112.4019,53.9727,306.1548,-3.3341e-05,-8.19e-06,0.0,0 STARLINK-3820,1 52364U 22045AK  22343.88311748 -.00000819  00000-0 -33341-4 0  9995,2 52364  53.2175 112.4019 0003064  53.9727 306.1548 15.08821718 36905,6917.936,95.439,541.9209999999998,537.682,0.0
52364.0,STARLINK-3820,PAYLOAD,2022-12-10 13:05:31,15.08826011,0.0001883,53.218,109.4304,32.4226,327.6882,0.00019825,2.867e-05,0.0,0 STARLINK-3820,1 52364U 22045AK  22344.54550737  .00002867  00000-0  19825-3 0  9995,2 52364  53.2180 109.4304 0001883  32.4226 327.6882 15.08826011 37009,6917.9230000000025,95.438,541.091,538.486,0.0
52364.0,STARLINK-3820,PAYLOAD,2022-12-10 14:40:54,15.08845425,0.0003244,53.218,109.1325,50.1398,309.9879,-1.6510999999999998e-05,-5.52e-06,0.0,0 STARLINK-3820,1 52364U 22045AK  22344.61174494 -.00000552  00000-0 -16511-4 0  9996,2 52364  53.2180 109.1325 0003244  50.1398 309.9879 15.08845425 37019,6917.864000000001,95.437,541.9730000000002,537.485,0.0
52364.0,STARLINK-3820,PAYLOAD,2022-12-10 16:16:17,15.08846691,0.000323,53.218,108.8351,50.3595,309.7681,-1.8079e-06,-3.18e-06,0.0,0 STARLINK-3820,1 52364U 22045AK  22344.67798371 -.00000318  00000-0 -18079-5 0  9990,2 52364  53.2180 108.8351 0003230  50.3595 309.7681 15.08846691 37026,6917.86,95.437,541.9590000000002,537.49,0.0
52364.0,STARLINK-3820,PAYLOAD,2022-12-11 12:56:20,15.08790239,0.0002669,53.2183,104.9695,55.5983,304.5261,0.00095812,0.00014973,0.0,0 STARLINK-3820,1 52364U 22045AK  22345.53912156  .00014973  00000-0  95812-3 0  9993,2 52364  53.2183 104.9695 0002669  55.5983 304.5261 15.08790239 37157,6918.031999999997,95.441,541.744,538.0509999999998,0.0
52364.0,STARLINK-3820,PAYLOAD,2022-12-11 19:17:51,15.08829848,0.000352,53.2178,103.7814,46.7856,313.3429,0.00016291,2.304e-05,0.0,0 STARLINK-3820,1 52364U 22045AK  22345.80407220  .00002304  00000-0  16291-3 0  9993,2 52364  53.2178 103.7814 0003520  46.7856 313.3429 15.08829848 37196,6917.911,95.438,542.212,537.341,0.0
52364.0,STARLINK-3820,PAYLOAD,2022-12-12 11:11:42,15.08847773,0.0002988,53.2182,100.8066,45.8233,314.3004,-5.5209e-05,-1.168e-05,0.0,0 STARLINK-3820,1 52364U 22045AK  22346.46646633 -.00001168  00000-0 -55209-4 0  9991,2 52364  53.2182 100.8066 0002988  45.8233 314.3004 15.08847773 37292,6917.857,95.437,541.789,537.655,0.0
52364.0,STARLINK-3820,PAYLOAD,2022-12-12 19:08:38,15.08843794,0.0003134,53.2187,99.3201,49.0627,311.0637,6.305199999999999e-05,7.15e-06,0.0,0 STARLINK-3820,1 52364U 22045AK  22346.79766498  .00000715  00000-0  63052-4 0  9999,2 52364  53.2187  99.3201 0003134  49.0627 311.0637 15.08843794 37348,6917.869000000002,95.437,541.9019999999998,537.566,0.0
52364.0,STARLINK-3820,PAYLOAD,2022-12-13 14:13:16,15.0883241,0.0003104,53.2184,95.752,48.5214,311.6045,1.8951e-05,1.3e-07,0.0,0 STARLINK-3820,1 52364U 22045AK  22347.59255247  .00000013  00000-0  18951-4 0  9992,2 52364  53.2184  95.7520 0003104  48.5214 311.6045 15.08832410 37467,6917.904,95.438,541.9159999999998,537.621,0.0
52364.0,STARLINK-3820,PAYLOAD,2022-12-14 14:04:03,15.08838962,0.0002792,53.2188,91.2907,46.2784,313.8439,5.8389e-05,6.41e-06,0.0,0 STARLINK-3820,1 52364U 22045AK  22348.58614927  .00000641  00000-0  58389-4 0  9992,2 52364  53.2188  91.2907 0002792  46.2784 313.8439 15.08838962 37616,6917.884,95.438,541.68,537.817,0.0
52364.0,STARLINK-3820,PAYLOAD,2022-12-15 07:33:16,15.08877678,0.0002853999999999,53.2174,88.01899999999998,41.0727,319.0479,-0.00049202,-8.119e-05,0.0,0 STARLINK-3820,1 52364U 22045AK  22349.31477312 -.00008119  00000-0 -49202-3 0  9992,2 52364  53.2174  88.0190 0002854  41.0727 319.0479 15.08877678 37729,6917.765,95.435,541.605,537.656,0.0
52364.0,STARLINK-3820,PAYLOAD,2022-12-15 12:19:26,15.08841612,0.0002736,53.2179,87.1288,43.6957,316.4252,0.0001861,2.675e-05,0.0,0 STARLINK-3820,1 52364U 22045AK  22349.51350554  .00002675  00000-0  18610-3 0  9990,2 52364  53.2179  87.1288 0002736  43.6957 316.4252 15.08841612 37756,6917.875,95.437,541.633,537.8480000000002,0.0
52364.0,STARLINK-3820,PAYLOAD,2022-12-15 17:05:36,15.08839025,0.0002766,53.2178,86.2371,44.3797,315.7417,0.00015228,2.136e-05,0.0,0 STARLINK-3820,1 52364U 22045AK  22349.71222836  .00002136  00000-0  15228-3 0  9997,2 52364  53.2178  86.2371 0002766  44.3797 315.7417 15.08839025 37784,6917.8830000000025,95.438,541.6619999999998,537.835,0.0
52364.0,STARLINK-3820,PAYLOAD,2022-12-15 23:27:10,15.0882032,0.0002218,53.2175,85.0464,33.968,326.1454,-8.216799999999999e-05,-1.595e-05,0.0,0 STARLINK-3820,1 52364U 22045AK  22349.97720579 -.00001595  00000-0 -82168-4 0  9990,2 52364  53.2175  85.0464 0002218  33.9680 326.1454 15.08820320 37828,6917.941,95.439,541.34,538.271,0.0
52364.0,STARLINK-3820,PAYLOAD,2022-12-16 13:45:39,15.08823942,0.0002652,53.2189,82.3713,46.4699,313.6513,-1.5484e-05,-5.35e-06,0.0,0 STARLINK-3820,1 52364U 22045AK  22350.57337166 -.00000535  00000-0 -15484-4 0  9994,2 52364  53.2189  82.3713 0002652  46.4699 313.6513 15.08823942 37911,6917.929,95.439,541.629,537.96,0.0
52364.0,STARLINK-3820,PAYLOAD,2022-12-16 15:21:02,15.08822247,0.0002802,53.2174,82.0735,44.3925,315.7291,-0.00010799,-2.006e-05,0.0,0 STARLINK-3820,1 52364U 22045AK  22350.63960731 -.00002006  00000-0 -10799-3 0  9999,2 52364  53.2174  82.0735 0002802  44.3925 315.7291 15.08822247 37926,6917.935,95.439,541.738,537.861,0.0
52364.0,STARLINK-3820,PAYLOAD,2022-12-17 12:01:03,15.0883392,0.0002679,53.2182,78.2084,49.6287,310.4939,0.00039675,6.031e-05,0.0,0 STARLINK-3820,1 52364U 22045AK  22351.50073226  .00006031  00000-0  39675-3 0  9994,2 52364  53.2182  78.2084 0002679  49.6287 310.4939 15.08833920 38056,6917.899,95.438,541.617,537.911,0.0
52364.0,STARLINK-3820,PAYLOAD,2022-12-17 15:11:49,15.08839626,0.0002592,53.2169,77.6129,48.7836,311.3379,0.00077278,0.00012032,0.0,0 STARLINK-3820,1 52364U 22045AK  22351.63321336  .00012032  00000-0  77278-3 0  9995,2 52364  53.2169  77.6129 0002592  48.7836 311.3379 15.08839626 38077,6917.882,95.438,541.54,537.953,0.0
52364.0,STARLINK-3820,PAYLOAD,2022-12-18 11:51:50,15.08843396,0.0002462,53.2168,73.7467,51.0015,309.1196,0.00044688,6.832e-05,0.0,0 STARLINK-3820,1 52364U 22045AK  22352.49433568  .00006832  00000-0  44688-3 0  9991,2 52364  53.2168  73.7467 0002462  51.0015 309.1196 15.08843396 38206,6917.87,95.437,541.438,538.0319999999998,0.0
52364.0,STARLINK-3820,PAYLOAD,2022-12-18 16:37:59,15.0884738,0.0002498,53.2173,72.8548,52.2047,307.9171,0.00046006,7.043e-05,0.0,0 STARLINK-3820,1 52364U 22045AK  22352.69305437  .00007043  00000-0  46006-3 0  9997,2 52364  53.2173  72.8548 0002498  52.2047 307.9171 15.08847380 38238,6917.858,95.437,541.451,537.995,0.0
52364.0,STARLINK-3820,PAYLOAD,2022-12-19 05:21:05,15.08844057,0.0002573,53.2172,70.4764,52.8156,307.3071,0.00026192,3.883e-05,0.0,0 STARLINK-3820,1 52364U 22045AK  22353.22297581  .00003883  00000-0  26192-3 0  9999,2 52364  53.2172  70.4764 0002573  52.8156 307.3071 15.08844057 38312,6917.868,95.437,541.513,537.953,0.0
52364.0,STARLINK-3820,PAYLOAD,2022-12-19 16:28:46,15.08864069,0.0002513,53.2175,68.3947,55.4177,304.7052,0.00063263,9.801e-05,0.0,0 STARLINK-3820,1 52364U 22045AK  22353.68664744  .00009801  00000-0  63263-3 0  9994,2 52364  53.2175  68.3947 0002513  55.4177 304.7052 15.08864069 38382,6917.807,95.436,541.41,537.933,0.0
52364.0,STARLINK-3820,PAYLOAD,2022-12-20 11:33:24,15.08849204,0.0002349,53.2179,64.827,57.1342,302.9876,0.00024152,3.559e-05,0.0,0 STARLINK-3820,1 52364U 22045AK  22354.48152930  .00003559  00000-0  24152-3 0  9990,2 52364  53.2179  64.8270 0002349  57.1342 302.9876 15.08849204 38508,6917.852,95.437,541.342,538.092,0.0
